[
  {
    "status": "in-progress",
    "contactInfo": {
      "recipientName": "my name",
      "phoneNumber": "66666666"
    },
    "destinationPoint": {
      "coordinates": [
        59,
        50
      ],
      "line1": "address one",
      "line2": "address two",
      "city": "my city",
      "postalCode": "12354"
    }
  },
  {
    "status": "in-progress",
    "contactInfo": {
      "recipientName": "my name",
      "phoneNumber": "66666666"
    },
    "destinationPoint": {
      "coordinates": [
        59,
        50
      ],
      "line1": "address one",
      "line2": "address two",
      "city": "my city",
      "postalCode": "12354"
    }
  },
  {
    "status": "in-progress",
    "contactInfo": {
      "recipientName": "my name",
      "phoneNumber": "66666666"
    },
    "destinationPoint": {
      "coordinates": [
        59,
        50
      ],
      "line1": "address one",
      "line2": "address two",
      "city": "my city",
      "postalCode": "12354"
    }
  },
  {
    "status": "in-progress",
    "contactInfo": {
      "recipientName": "my name",
      "phoneNumber": "66666666"
    },
    "destinationPoint": {
      "coordinates": [
        59,
        50
      ],
      "line1": "address one",
      "line2": "address two",
      "city": "my city",
      "postalCode": "12354"
    }
  },
  {
    "status": "in-progress",
    "contactInfo": {
      "recipientName": "my name",
      "phoneNumber": "66666666"
    },
    "destinationPoint": {
      "coordinates": [
        59,
        50
      ],
      "line1": "address one",
      "line2": "address two",
      "city": "my city",
      "postalCode": "12354"
    }
  },
  {
    "status": "in-progress",
    "contactInfo": {
      "recipientName": "my name",
      "phoneNumber": "66666666"
    },
    "destinationPoint": {
      "coordinates": [
        59,
        50
      ],
      "line1": "address one",
      "line2": "address two",
      "city": "my city",
      "postalCode": "12354"
    }
  },
  {
    "status": "in-progress",
    "contactInfo": {
      "recipientName": "my name",
      "phoneNumber": "66666666"
    },
    "destinationPoint": {
      "coordinates": [
        59,
        50
      ],
      "line1": "address one",
      "line2": "address two",
      "city": "my city",
      "postalCode": "12354"
    }
  },
  {
    "status": "in-progress",
    "contactInfo": {
      "recipientName": "my name",
      "phoneNumber": "66666666"
    },
    "destinationPoint": {
      "coordinates": [
        59,
        50
      ],
      "line1": "address one",
      "line2": "address two",
      "city": "my city",
      "postalCode": "12354"
    }
  },
  {
    "status": "in-progress",
    "contactInfo": {
      "recipientName": "my name",
      "phoneNumber": "66666666"
    },
    "destinationPoint": {
      "coordinates": [
        59,
        50
      ],
      "line1": "address one",
      "line2": "address two",
      "city": "my city",
      "postalCode": "12354"
    }
  },
  {
    "status": "in-progress",
    "contactInfo": {
      "recipientName": "my name",
      "phoneNumber": "66666666"
    },
    "destinationPoint": {
      "coordinates": [
        59,
        50
      ],
      "line1": "address one",
      "line2": "address two",
      "city": "my city",
      "postalCode": "12354"
    }
  },
  {
    "status": "in-progress",
    "contactInfo": {
      "recipientName": "my name",
      "phoneNumber": "66666666"
    },
    "destinationPoint": {
      "coordinates": [
        59,
        50
      ],
      "line1": "address one",
      "line2": "address two",
      "city": "my city",
      "postalCode": "12354"
    }
  },
  {
    "status": "in-progress",
    "contactInfo": {
      "recipientName": "my name",
      "phoneNumber": "66666666"
    },
    "destinationPoint": {
      "coordinates": [
        59,
        50
      ],
      "line1": "address one",
      "line2": "address two",
      "city": "my city",
      "postalCode": "12354"
    }
  },
  {
    "status": "in-progress",
    "contactInfo": {
      "recipientName": "my name",
      "phoneNumber": "66666666"
    },
    "destinationPoint": {
      "coordinates": [
        59,
        50
      ],
      "line1": "address one",
      "line2": "address two",
      "city": "my city",
      "postalCode": "12354"
    }
  }
]